     2.100          NAVIGATION                              RINEX VERSION / TYPE
fic2rin                                 04/27/2015 00:16:33 PGM / RUN BY / DATE
                                                            END OF HEADER
27 15  4 26  6  0  0.0  .676284544170D-04  .272848410532D-11  .000000000000D+00
     .800000000000D+02 -.559062500000D+02  .458376236067D-08 -.535253019825D+00
    -.287778675556D-05  .236782978754D-02  .547245144844D-05  .515368877602D+04
     .216000000000D+05  .894069671631D-07 -.248122397026D+01  .372529029846D-08
     .967028834873D+00  .276843750000D+03  .173112968473D+00 -.820069873488D-08
     .300012496725D-10  .100000000000D+01  .184200000000D+04  .000000000000D+00
     .240000000000D+01  .000000000000D+00  .139698386192D-08  .800000000000D+02
     .144060000000D+05  .400000000000D+01
28 15  4 26  6  0  0.0  .435592141002D-03  .261479726760D-11  .000000000000D+00
     .560000000000D+02  .133125000000D+02  .397695137027D-08  .198150647553D+00
     .614672899246D-06  .195393059403D-01  .599585473537D-05  .515369527626D+04
     .216000000000D+05 -.314787030220D-06  .282833511601D+01 -.186264514923D-08
     .988970752544D+00  .281468750000D+03 -.166440030477D+01 -.823784313923D-08
     .163221084528D-09  .100000000000D+01  .184200000000D+04  .000000000000D+00
     .240000000000D+01  .000000000000D+00 -.111758708954D-07  .560000000000D+02
     .144060000000D+05  .400000000000D+01
29 15  4 26  6  0  0.0  .606667250395D-03  .238742359215D-11  .000000000000D+00
     .510000000000D+02 -.573437500000D+02  .445197115675D-08  .206938313800D+01
    -.317208468914D-05  .135263451375D-02  .627338886261D-05  .515377347946D+04
     .216000000000D+05  .670552253723D-07 -.242431598007D+01  .316649675369D-07
     .972948803520D+00  .266125000000D+03 -.661624411244D+00 -.811140930133D-08
    -.892894335490D-11  .100000000000D+01  .184200000000D+04  .000000000000D+00
     .240000000000D+01  .000000000000D+00 -.977888703346D-08  .510000000000D+02
     .144060000000D+05  .400000000000D+01
30 15  4 26  6  0  0.0 -.672442838550D-04  .432009983342D-11  .000000000000D+00
     .990000000000D+02  .290625000000D+02  .443304179684D-08  .309325947726D+01
     .155158340931D-05  .128335435875D-02  .767037272453D-05  .515375323105D+04
     .216000000000D+05  .372529029846D-08  .178580132815D+01  .186264514923D-08
     .956074618403D+00  .229406250000D+03  .284512722557D+01 -.807605068564D-08
    -.685742849656D-10  .100000000000D+01  .184200000000D+04  .000000000000D+00
     .340000000000D+01  .000000000000D+00  .325962901115D-08  .990000000000D+02
     .144060000000D+05  .400000000000D+01
32 15  4 26  6  0  0.0 -.166667159647D-03  .954969436862D-11  .000000000000D+00
     .190000000000D+02  .275000000000D+02  .488306054193D-08 -.287705323730D+01
     .123679637909D-05  .112646380439D-01  .774674117565D-05  .515378233337D+04
     .216000000000D+05 -.234693288803D-06 -.301257516082D+00 -.223517417908D-07
     .947315969867D+00  .220062500000D+03  .380091001230D-01 -.804104922769D-08
     .678599694973D-11  .100000000000D+01  .184200000000D+04  .000000000000D+00
     .240000000000D+01  .000000000000D+00 -.372529029846D-08  .190000000000D+02
     .144060000000D+05  .400000000000D+01
30 15  4 26  5 59 44.0 -.672442838550D-04  .432009983342D-11  .000000000000D+00
     .150000000000D+02  .290625000000D+02  .443304179684D-08  .309092356574D+01
     .155158340931D-05  .128335354384D-02  .767037272453D-05  .515375323486D+04
     .215840000000D+05  .372529029846D-08  .178580145688D+01  .186264514923D-08
     .956074633032D+00  .229406250000D+03  .284512949456D+01 -.807605068564D-08
    -.685742849656D-10  .100000000000D+01  .184200000000D+04  .000000000000D+00
     .240000000000D+01  .000000000000D+00  .325962901115D-08  .150000000000D+02
     .145260000000D+05  .400000000000D+01
23 15  4 26  5 59 44.0 -.104359816760D-03 -.250111042988D-11  .000000000000D+00
     .000000000000D+00  .550000000000D+01  .482270088485D-08 -.182769293093D+01
     .124797224998D-06  .100531572243D-01  .653974711895D-05  .515362603760D+04
     .215840000000D+05  .745058059692D-08  .668444073047D+00 -.152736902237D-06
     .948906255446D+00  .246312500000D+03 -.269438883426D+01 -.812855287257D-08
    -.167149819604D-09  .100000000000D+01  .184200000000D+04  .000000000000D+00
     .240000000000D+01  .000000000000D+00 -.200234353542D-07  .000000000000D+00
     .199560000000D+05  .400000000000D+01
23 15  4 26  7 59 44.0 -.104377511889D-03 -.250111042988D-11  .000000000000D+00
     .500000000000D+01  .108125000000D+02  .496342103212D-08 -.777562744907D+00
     .441446900368D-06  .100530782947D-01  .635348260403D-05  .515362445450D+04
     .287840000000D+05  .242143869400D-06  .668386123936D+00  .577419996262D-07
     .948903705580D+00  .249406250000D+03 -.269430644271D+01 -.834820487910D-08
    -.352157525917D-09  .100000000000D+01  .184200000000D+04  .000000000000D+00
     .240000000000D+01  .000000000000D+00 -.200234353542D-07  .500000000000D+01
     .216060000000D+05  .400000000000D+01
 1 15  4 26  8  0  0.0 -.632693991065D-05  .454747350886D-12  .000000000000D+00
     .670000000000D+02 -.425312500000D+02  .455768984608D-08 -.167976127230D+01
    -.230409204960D-05  .413752649911D-02  .947713851929D-05  .515366749763D+04
     .288000000000D+05  .502914190292D-07 -.142419507366D+01 -.502914190292D-07
     .961790991278D+00  .196937500000D+03  .374472643866D+00 -.794568811266D-08
     .157149403046D-09  .100000000000D+01  .184200000000D+04  .000000000000D+00
     .240000000000D+01  .000000000000D+00  .558793544769D-08  .670000000000D+02
     .216060000000D+05  .400000000000D+01
 2 15  4 26  8  0  0.0  .562091358006D-03  .238742359215D-11  .000000000000D+00
     .590000000000D+02 -.293125000000D+02  .512021327744D-08 -.122380958614D+01
    -.135228037834D-05  .146201249445D-01  .867992639542D-05  .515380711174D+04
     .288000000000D+05  .303611159325D-06 -.146108606110D+01  .162050127983D-06
     .940409975416D+00  .198500000000D+03 -.227724662533D+01 -.822355682986D-08
     .126790995640D-09  .100000000000D+01  .184200000000D+04  .000000000000D+00
     .240000000000D+01  .000000000000D+00 -.204890966415D-07  .590000000000D+02
     .216060000000D+05  .400000000000D+01
 3 15  4 26  8  0  0.0  .309006310999D-03  .121644916362D-10  .000000000000D+00
     .820000000000D+02  .256250000000D+02  .474948354934D-08  .319960683807D+00
     .130198895931D-05  .917311990634D-03  .798702239990D-05  .515369723892D+04
     .288000000000D+05 -.298023223877D-07 -.383546378623D+00 -.540167093277D-07
     .959586625355D+00  .221781250000D+03 -.271226394939D+01 -.809462288782D-08
     .971469037013D-10  .100000000000D+01  .184200000000D+04  .000000000000D+00
     .240000000000D+01  .000000000000D+00  .186264514923D-08  .820000000000D+02
     .216060000000D+05  .400000000000D+01
 4 15  4 26  8  0  0.0 -.125379301608D-04 -.125055521494D-11  .000000000000D+00
     .460000000000D+02 -.479375000000D+02  .501306595718D-08 -.192987811864D+01
    -.248104333878D-05  .111960378708D-01  .921078026295D-05  .515370449257D+04
     .288000000000D+05  .193715095520D-06 -.144577235754D+01 -.279396772385D-07
     .939466385940D+00  .187375000000D+03  .105439248562D+01 -.807176479283D-08
     .195008122871D-09  .100000000000D+01  .184200000000D+04  .000000000000D+00
     .240000000000D+01  .000000000000D+00 -.651925802231D-08  .460000000000D+02
     .216060000000D+05  .400000000000D+01
 5 15  4 26  8  0  0.0 -.249113421887D-03  .477484718431D-11  .000000000000D+00
     .400000000000D+02  .260312500000D+02  .513557106001D-08  .120956462030D+01
     .162236392498D-05  .412273686379D-02  .772252678871D-05  .515354083252D+04
     .288000000000D+05  .521540641785D-07 -.390155833728D+00  .726431608200D-07
     .946818628922D+00  .222625000000D+03  .380514671083D+00 -.834856203683D-08
     .217866217860D-10  .100000000000D+01  .184200000000D+04  .000000000000D+00
     .240000000000D+01  .000000000000D+00 -.107102096081D-07  .400000000000D+02
     .216060000000D+05  .400000000000D+01
 6 15  4 26  8  0  0.0  .145436730236D-03  .966338120634D-11  .000000000000D+00
     .700000000000D+02 -.343750000000D+02  .459197698856D-08  .763041861013D-01
    -.174157321453D-05  .180237577297D-03  .909902155399D-05  .515374064064D+04
     .288000000000D+05 -.745058059692D-08 -.143271060423D+01 -.130385160446D-07
     .961677348876D+00  .207062500000D+03 -.291289880885D+01 -.796247452617D-08
     .971469037013D-10  .100000000000D+01  .184200000000D+04  .000000000000D+00
     .240000000000D+01  .000000000000D+00  .419095158577D-08  .700000000000D+02
     .216060000000D+05  .400000000000D+01
 7 15  4 26  8  0  0.0  .457977410406D-03  .261479726760D-11  .000000000000D+00
     .210000000000D+02  .218437500000D+02  .405731186047D-08 -.231185172574D+01
     .105239450932D-05  .823838263750D-02  .866316258907D-05  .515372312546D+04
     .288000000000D+05 -.465661287308D-07  .173595571981D+01 -.521540641785D-07
     .970334772258D+00  .218375000000D+03 -.275792091020D+01 -.775853745994D-08
    -.514307137242D-10  .100000000000D+01  .184200000000D+04  .000000000000D+00
     .240000000000D+01  .000000000000D+00 -.111758708954D-07  .210000000000D+02
     .216060000000D+05  .400000000000D+01
 9 15  4 26  8  0  0.0 -.144776422530D-03 -.750333128963D-11  .000000000000D+00
     .910000000000D+02  .109062500000D+02  .471126767178D-08 -.170277493838D+00
     .460073351860D-06  .450184685178D-03  .658258795738D-05  .515360796165D+04
     .288000000000D+05 -.111758708954D-07  .659486015611D+00 -.391155481339D-07
     .957872140957D+00  .251031250000D+03  .251455880282D+01 -.815319675623D-08
    -.310727228751D-09  .100000000000D+01  .184200000000D+04  .000000000000D+00
     .240000000000D+01  .000000000000D+00  .465661287308D-09  .910000000000D+02
     .216060000000D+05  .400000000000D+01
